MEAN_MOTION;ECCENTRICITY;INCLINATION;RA_OF_ASC_NODE;ARG_OF_PERICENTER;MEAN_ANOMALY;BSTAR;MEAN_MOTION_DOT;MEAN_MOTION_DDOT;TYPE
14.34217572;0.0001827;86.3972;318.0622;74.9826;285.1572;1.3686E-5;5.8E-7;0;Iridium
14.34217633;0.0001813;86.3972;317.8289;75.2569;284.8827;1.502E-5;6.2E-7;0;Iridium
14.34217671;0.0001801;86.3971;317.6247;75.4869;284.6526;1.527E-5;6.3E-7;0;Iridium
14.34217797;0.000178;86.3969;317.2747;76.1425;283.9968;1.9494E-5;7.4E-7;0;Iridium
14.34217807;0.0001778;86.3969;317.2164;76.3172;283.8221;1.9224E-5;7.4E-7;0;Iridium
14.34217844;0.0001771;86.3968;317.0414;76.1131;284.0262;1.9732E-5;7.5E-7;0;Iridium
14.34217923;0.0001763;86.3967;316.8373;76.4383;283.7009;2.1541E-5;8.0E-7;0;Iridium
14.3421798;0.0001749;86.3967;316.6623;76.7581;283.381;2.3714E-5;8.6E-7;0;Iridium
14.34218014;0.0001737;86.3966;316.429;76.8114;283.3275;2.2437E-5;8.3E-7;0;Iridium
14.34218014;0.0001737;86.3966;316.429;76.8114;283.3275;2.2437E-5;8.3E-7;0;Iridium
14.34218292;0.000171;86.3964;316.0206;77.7756;282.3631;2.9257E-5;1.02E-6;0;Iridium
14.3421839;0.0001698;86.3963;315.8164;78.3335;281.8052;3.0425E-5;1.05E-6;0;Iridium
14.34218212;0.0001689;86.3963;315.6123;78.7493;281.3892;2.2465E-5;8.3E-7;0;Iridium
14.34218233;0.0001687;86.3963;315.554;78.9618;281.1768;2.214E-5;8.2E-7;0;Iridium
14.34218367;0.0001688;86.396;315.2037;79.4092;280.7294;2.2839E-5;8.4E-7;0;Iridium
14.34218371;0.0001687;86.396;315.1162;79.6065;280.5321;2.097E-5;7.8E-7;0;Iridium
14.34218517;0.000168;86.3958;314.7079;81.256;278.8826;1.9687E-5;7.5E-7;0;Iridium
14.34218591;0.0001679;86.3957;314.3871;81.5107;278.6279;1.7787E-5;7.0E-7;0;Iridium
14.34218607;0.0001678;86.3957;314.3579;81.5634;278.5752;1.7767E-5;7.0E-7;0;Iridium
14.34218625;0.0001679;86.3957;314.2704;81.6366;278.502;1.748E-5;6.9E-7;0;Iridium
14.34218749;0.0001671;86.3955;313.9495;82.1764;277.9622;1.9056E-5;7.3E-7;0;Iridium
14.34218795;0.0001668;86.3955;313.8036;82.4916;277.6469;2.0355E-5;7.7E-7;0;Iridium
14.3421883;0.0001658;86.3953;313.541;83.0288;277.1096;1.6787E-5;6.7E-7;0;Iridium
14.34218861;0.0001652;86.3953;313.366;83.5168;276.6216;1.6373E-5;6.6E-7;0;Iridium
14.34218884;0.0001647;86.3951;313.1034;84.0585;276.0799;1.2896E-5;5.6E-7;0;Iridium
14.34218885;0.0001644;86.3951;312.9575;84.5448;275.5936;1.2238E-5;5.4E-7;0;Iridium
14.3421888;0.0001641;86.395;312.6948;84.9805;275.1578;8.6102E-6;4.4E-7;0;Iridium
14.34218914;0.000164;86.395;312.5489;85.4574;274.6809;1.0885E-5;5.0E-7;0;Iridium
14.34218995;0.0001639;86.3949;312.2863;85.8523;274.286;1.3079E-5;5.6E-7;0;Iridium
14.34219004;0.0001639;86.3949;312.2571;85.9238;274.2145;1.2891E-5;5.6E-7;0;Iridium
14.34219088;0.0001639;86.3949;312.1404;86.5186;273.6198;1.8735E-5;7.2E-7;0;Iridium
14.34219191;0.0001638;86.3948;311.8486;87.0711;273.0672;2.1103E-5;7.9E-7;0;Iridium
14.34219221;0.0001638;86.3948;311.7319;87.6022;272.5361;2.2512E-5;8.3E-7;0;Iridium
14.34219321;0.0001637;86.3946;311.44;88.417;271.7214;2.3906E-5;8.7E-7;0;Iridium
14.34219326;0.0001638;86.3946;311.3817;88.6252;271.5132;2.3319E-5;8.5E-7;0;Iridium
14.34219355;0.0001644;86.3945;311.0314;89.3345;270.804;2.1386E-5;8.0E-7;0;Iridium
14.34219408;0.0001648;86.3945;310.8855;89.9225;270.216;2.3589E-5;8.6E-7;0;Iridium
14.34219447;0.0001651;86.3943;310.5937;90.3902;269.7483;2.0667E-5;7.8E-7;0;Iridium
14.34219502;0.0001656;86.3943;310.4477;90.9605;269.178;2.2965E-5;8.4E-7;0;Iridium
14.34219548;0.0001659;86.3941;310.2142;91.351;268.7875;2.1259E-5;7.9E-7;0;Iridium
14.34219598;0.0001663;86.3941;310.0391;92.0353;268.1033;2.203E-5;8.1E-7;0;Iridium
14.34219683;0.0001673;86.3939;309.7473;92.5375;267.6012;2.0647E-5;7.8E-7;0;Iridium
14.34219731;0.0001676;86.3939;309.6305;92.8605;267.2782;2.2789E-5;8.4E-7;0;Iridium
14.34219865;0.0001684;86.3938;309.3678;93.1722;266.9667;2.5276E-5;9.1E-7;0;Iridium
14.34219877;0.0001685;86.3938;309.3386;93.2422;266.8967;2.477E-5;8.9E-7;0;Iridium
14.3421996;0.000169;86.3938;309.1927;93.709;266.4299;2.768E-5;9.7E-7;0;Iridium
14.34220011;0.0001697;86.3936;308.9299;94.1544;265.9845;2.3502E-5;8.6E-7;0;Iridium
14.34220011;0.0001697;86.3936;308.9299;94.1544;265.9845;2.3502E-5;8.6E-7;0;Iridium
14.34220017;0.0001698;86.3936;308.9008;94.228;265.911;2.2954E-5;8.4E-7;0;Iridium
14.34216416;0.0001725;86.3935;308.7256;95.4508;264.6885;2.2263E-5;8.2E-7;0;Iridium
14.34216471;0.0001731;86.3935;308.3753;95.7236;264.4157;1.2293E-5;5.4E-7;0;Iridium
14.34216489;0.0001731;86.3934;308.2877;95.8337;264.3056;1.151E-5;5.2E-7;0;Iridium
14.3421641;0.0001743;86.3934;308.1125;96.2208;263.9186;-2.1772E-6;1.4E-7;0;Iridium
14.34216391;0.0001749;86.3934;307.9373;96.4461;263.6934;-2.5064E-6;1.3E-7;0;Iridium
14.34216386;0.0001756;86.3933;307.7038;96.7413;263.3983;-3.2364E-6;1.1E-7;0;Iridium
14.34216235;0.0001763;86.3933;307.5286;97.0511;263.0885;-1.4536E-5;-2.1E-7;0;Iridium
14.34216187;0.0001667;86.3934;307.441;92.884;267.2546;-1.3106E-5;-1.7E-7;0;Iridium
14.34216134;0.0001688;86.3931;306.8571;93.8708;266.2681;-1.0914E-5;-1.1E-7;0;Iridium
14.34216133;0.0001696;86.393;306.6819;94.3478;265.7912;-9.8795E-6;-8.0E-8;0;Iridium
14.34216151;0.0001705;86.3929;306.4192;94.712;265.4271;-7.9551E-6;-2.0E-8;0;Iridium
14.34216144;0.0001706;86.3929;306.39;94.7757;265.3634;-8.1669E-6;-3.0E-8;0;Iridium
14.34216146;0.0001713;86.3929;306.2732;95.1463;264.9929;-7.3595E-6;-1.0E-8;0;Iridium
14.34216143;0.0001727;86.3928;305.9812;95.4044;264.7348;-6.2097E-6;2.0E-8;0;Iridium
14.34216114;0.0001752;86.3927;305.5432;96.0077;264.1318;-5.412E-6;5.0E-8;0;Iridium
14.34216106;0.000176;86.3927;305.4264;96.2206;263.919;-5.0906E-6;6.0E-8;0;Iridium
14.34216032;0.0001775;86.3926;305.1636;96.3457;263.7941;-7.3582E-6;-1.0E-8;0;Iridium
14.3421602;0.0001784;86.3926;305.0176;96.7391;263.4008;-6.9086E-6;0;0;Iridium
14.34215979;0.000181;86.3925;304.7548;97.6227;262.5175;-7.826E-6;-2.0E-8;0;Iridium
14.34215958;0.0001823;86.3925;304.6087;98.1339;262.0064;-7.8718E-6;-2.0E-8;0;Iridium
14.34215946;0.0001848;86.3925;304.1707;98.3685;261.7721;-6.2937E-6;2.0E-8;0;Iridium
14.34215963;0.0001866;86.3924;303.8786;98.4284;261.7124;-4.2995E-6;8.0E-8;0;Iridium
14.34215922;0.0001892;86.3924;303.4698;98.9573;261.1837;-4.6394E-6;7.0E-8;0;Iridium
14.34215861;0.0001919;86.3925;303.061;99.3922;260.7491;-6.0632E-6;3.0E-8;0;Iridium
14.34215839;0.0001931;86.3925;302.915;99.6208;260.5206;-6.4447E-6;2.0E-8;0;Iridium
14.34215783;0.0001949;86.3924;302.623;99.7715;260.3701;-8.2899E-6;-3.0E-8;0;Iridium
14.34215765;0.0001959;86.3924;302.5062;99.8261;260.3156;-8.4836E-6;-4.0E-8;0;Iridium
14.34215735;0.0001978;86.3924;302.2142;99.8825;260.2594;-8.9297E-6;-5.0E-8;0;Iridium
14.34215705;0.0001987;86.3924;302.0974;100.0238;260.1182;-9.755E-6;-8.0E-8;0;Iridium
14.34215728;0.0002007;86.3923;301.8054;100.1689;259.9733;-7.7109E-6;-2.0E-8;0;Iridium
14.34215728;0.0002007;86.3923;301.8054;100.1689;259.9733;-7.7109E-6;-2.0E-8;0;Iridium
14.34215738;0.0002017;86.3923;301.6594;100.1447;259.9977;-6.4291E-6;2.0E-8;0;Iridium
14.34215715;0.0002031;86.3923;301.4258;100.093;260.0495;-6.8918E-6;0;0;Iridium
14.34215698;0.0002046;86.3923;301.1922;100.0444;260.0982;-6.8692E-6;1.0E-8;0;Iridium
14.342157;0.0002059;86.3922;300.9878;100.0514;260.0915;-6.1444E-6;3.0E-8;0;Iridium
14.34215703;0.0002069;86.3922;300.8418;100.0604;260.0825;-5.3689E-6;5.0E-8;0;Iridium
14.34215669;0.0002095;86.3922;300.5206;100.1996;259.9436;-5.8638E-6;3.0E-8;0;Iridium
14.34215648;0.0002102;86.3922;300.4038;100.1428;260.0005;-6.3559E-6;2.0E-8;0;Iridium
14.34215637;0.000212;86.3921;300.1409;100.0203;260.1232;-5.9539E-6;3.0E-8;0;Iridium
14.34215614;0.000213;86.3921;299.9949;99.9841;260.1596;-6.1526E-6;3.0E-8;0;Iridium
14.34215549;0.000214;86.3921;299.7321;99.6745;260.4692;-8.057E-6;-3.0E-8;0;Iridium
14.34215538;0.0002151;86.3921;299.5861;99.6882;260.4557;-7.6461E-6;-2.0E-8;0;Iridium
14.34215506;0.0002175;86.3922;299.1772;99.4502;260.6939;-6.9091E-6;0;0;Iridium
14.34215498;0.0002176;86.3922;299.148;99.4224;260.7217;-7.247E-6;-1.0E-8;0;Iridium
14.34215493;0.0002192;86.3923;298.8852;99.3255;260.8189;-6.2457E-6;2.0E-8;0;Iridium
14.34215476;0.0002202;86.3923;298.7392;99.2971;260.8473;-6.1691E-6;3.0E-8;0;Iridium
14.34216484;0.0002431;86.3909;298.4735;103.5407;256.606;-5.898E-6;3.0E-8;0;Iridium
14.34218664;0.0002186;86.3922;298.3303;97.5932;262.5512;-5.7706E-6;4.0E-8;0;Iridium
14.34218402;0.0002232;86.3924;298.0381;98.3866;261.7583;-6.0737E-6;3.0E-8;0;Iridium
14.34218368;0.0002243;86.3924;297.8921;98.4023;261.7427;-8.8695E-6;-5.0E-8;0;Iridium
14.34218405;0.0002266;86.3924;297.6293;98.3125;261.8328;-4.5696E-7;1.9E-7;0;Iridium
14.34218392;0.0002273;86.3925;297.4833;98.2157;261.9297;-6.0036E-7;1.8E-7;0;Iridium
14.34218329;0.0002286;86.3925;297.2205;98.0233;262.1223;-6.7932E-6;1.0E-8;0;Iridium
14.34218313;0.0002287;86.3925;297.1913;97.9791;262.1664;-7.8356E-6;-2.0E-8;0;Iridium
14.34218313;0.0002287;86.3925;297.1913;97.9791;262.1664;-7.8356E-6;-2.0E-8;0;Iridium
14.34218309;0.0002297;86.3925;297.0745;97.9707;262.175;-7.0918E-6;0;0;Iridium
14.34218289;0.0002313;86.3925;296.7533;97.837;262.3089;-6.9451E-6;0;0;Iridium
14.34218266;0.0002321;86.3925;296.6365;97.7124;262.4335;-7.968E-6;-3.0E-8;0;Iridium
14.34218232;0.0002334;86.3925;296.3737;97.4113;262.7348;-8.73E-6;-5.0E-8;0;Iridium
14.34218206;0.0002342;86.3925;296.2277;97.2781;262.8681;-9.3986E-6;-7.0E-8;0;Iridium
14.34218146;0.0002356;86.3925;295.9649;97.1243;263.0221;-1.1561E-5;-1.3E-7;0;Iridium
14.34218118;0.0002364;86.3926;295.819;97.0083;263.1382;-1.1994E-5;-1.4E-7;0;Iridium
14.34218114;0.0002381;86.3926;295.4978;96.9268;263.2198;-9.6724E-6;-7.0E-8;0;Iridium
14.34218197;0.0002395;86.3926;295.1182;96.4936;263.6533;-1.5612E-6;1.5E-7;0;Iridium
14.34218164;0.0002502;86.3929;295.0595;99.3953;260.7525;-7.3528E-7;1.8E-7;0;Iridium
14.34218368;0.0002516;86.393;294.7091;99.0217;261.1263;1.1815E-5;5.3E-7;0;Iridium
14.34218443;0.0002521;86.393;294.5632;98.821;261.3272;1.6692E-5;6.7E-7;0;Iridium
14.3421861;0.0002537;86.3931;294.3004;98.5657;261.5826;2.3687E-5;8.6E-7;0;Iridium
14.34218628;0.0002539;86.3931;294.2712;98.5523;261.596;2.4633E-5;8.9E-7;0;Iridium
